ATLAS CENTAUR R/B       
1 06155U 72065B   26064.43674763  .00001875  00000+0  25835-3 0  9991
2 06155  35.0027 330.6773 0034036 333.1322  26.7616 14.77674031840637
SL-8 R/B                
1 08459U 75112B   26064.32952163  .00000334  00000+0  11859-3 0  9997
2 08459  74.0619  26.9320 0014528 122.0340 238.2228 14.38200686631240
SL-3 R/B                
1 10114U 77057B   26064.57503810  .00016285  00000+0  34273-3 0  9993
2 10114  97.5765 236.3152 0006274 302.3470  57.7171 15.45356258667694
SEASAT 1                
1 10967U 78064A   26064.13826077  .00000275  00000+0  11535-3 0  9991
2 10967 108.0119 115.9490 0002205 287.3254  72.7650 14.46155861505855
SL-14 R/B               
1 11267U 79011B   26064.55628380  .00000792  00000+0  75615-4 0  9995
2 11267  82.5213 100.4941 0017572  73.2348 287.0798 14.91902861528162
SL-8 R/B                
1 11574U 79089B   26064.51458021  .00000375  00000+0  12143-3 0  9993
2 11574  74.0672  98.7734 0017140 271.8665  88.0529 14.42347568435505
SL-14 R/B               
1 11672U 80005B   26064.63370136  .00000787  00000+0  77043-4 0  9993
2 11672  82.5153 311.0835 0015831 171.4086 188.7408 14.90925035475885
SL-8 R/B                
1 12139U 81003B   26064.62951020  .00020779  00000+0  53522-3 0  9995
2 12139  82.9382 293.7791 0262618 192.7413 166.7102 15.10782534314063
SL-3 R/B                
1 12465U 81046B   26064.63123281  .00014424  00000+0  33663-3 0  9999
2 12465  81.2302 294.6181 0019912  36.0727 324.1855 15.41869480437800
SL-3 R/B                
1 12904U 81103B   26064.56291063  .00008025  00000+0  35676-3 0  9993
2 12904  81.1581 218.2727 0012464 301.4510  58.5502 15.21316164972601
SL-3 R/B                
1 13068U 82013B   26064.57271253  .00006271  00000+0  27201-3 0  9992
2 13068  81.1766 165.5946 0022399 191.1280 168.9460 15.21964869403723
SL-3 R/B                
1 13154U 82039B   26064.61480761  .00003886  00000+0  23508-3 0  9992
2 13154  81.1583 220.6597 0029826 337.7579  22.2350 15.10052486381021
