CCSDS_OMM_VERS = 2.0
CREATION_DATE  = 
ORIGINATOR     = 

OBJECT_NAME    = ATLAS CENTAUR R/B
OBJECT_ID      = 1972-065B
CENTER_NAME    = EARTH
REF_FRAME      = TEME
TIME_SYSTEM    = UTC
MEAN_ELEMENT_THEORY = SGP/SGP4

EPOCH          = 2026-03-05T10:28:54.995232
MEAN_MOTION    = 14.77674031
ECCENTRICITY   = .0034036
INCLINATION    = 35.0027
RA_OF_ASC_NODE = 330.6773
ARG_OF_PERICENTER = 333.1322
MEAN_ANOMALY   = 26.7616

EPHEMERIS_TYPE = 0
CLASSIFICATION_TYPE = U
NORAD_CAT_ID   = 6155
ELEMENT_SET_NO = 999
REV_AT_EPOCH   = 84063
BSTAR          = .25835064E-3
MEAN_MOTION_DOT = .1875E-4
MEAN_MOTION_DDOT = 0

CCSDS_OMM_VERS = 2.0
CREATION_DATE  = 
ORIGINATOR     = 

OBJECT_NAME    = SL-8 R/B
OBJECT_ID      = 1975-112B
CENTER_NAME    = EARTH
REF_FRAME      = TEME
TIME_SYSTEM    = UTC
MEAN_ELEMENT_THEORY = SGP/SGP4

EPOCH          = 2026-03-05T07:54:30.668832
MEAN_MOTION    = 14.38200686
ECCENTRICITY   = .00145288
INCLINATION    = 74.0619
RA_OF_ASC_NODE = 26.9320
ARG_OF_PERICENTER = 122.0340
MEAN_ANOMALY   = 238.2228

EPHEMERIS_TYPE = 0
CLASSIFICATION_TYPE = U
NORAD_CAT_ID   = 8459
ELEMENT_SET_NO = 999
REV_AT_EPOCH   = 63124
BSTAR          = .11858584E-3
MEAN_MOTION_DOT = .334E-5
MEAN_MOTION_DDOT = 0

CCSDS_OMM_VERS = 2.0
CREATION_DATE  = 
ORIGINATOR     = 

OBJECT_NAME    = SL-3 R/B
OBJECT_ID      = 1977-057B
CENTER_NAME    = EARTH
REF_FRAME      = TEME
TIME_SYSTEM    = UTC
MEAN_ELEMENT_THEORY = SGP/SGP4

EPOCH          = 2026-03-05T13:48:03.291840
MEAN_MOTION    = 15.45356258
ECCENTRICITY   = .0006274
INCLINATION    = 97.5765
RA_OF_ASC_NODE = 236.3152
ARG_OF_PERICENTER = 302.3470
MEAN_ANOMALY   = 57.7171

EPHEMERIS_TYPE = 0
CLASSIFICATION_TYPE = U
NORAD_CAT_ID   = 10114
ELEMENT_SET_NO = 999
REV_AT_EPOCH   = 66769
BSTAR          = .34273379E-3
MEAN_MOTION_DOT = .16285E-3
MEAN_MOTION_DDOT = 0

CCSDS_OMM_VERS = 2.0
CREATION_DATE  = 
ORIGINATOR     = 

OBJECT_NAME    = SEASAT 1
OBJECT_ID      = 1978-064A
CENTER_NAME    = EARTH
REF_FRAME      = TEME
TIME_SYSTEM    = UTC
MEAN_ELEMENT_THEORY = SGP/SGP4

EPOCH          = 2026-03-05T03:19:05.730528
MEAN_MOTION    = 14.46155861
ECCENTRICITY   = .00022054
INCLINATION    = 108.0119
RA_OF_ASC_NODE = 115.9490
ARG_OF_PERICENTER = 287.3254
MEAN_ANOMALY   = 72.7650

EPHEMERIS_TYPE = 0
CLASSIFICATION_TYPE = U
NORAD_CAT_ID   = 10967
ELEMENT_SET_NO = 999
REV_AT_EPOCH   = 50585
BSTAR          = .11534668E-3
MEAN_MOTION_DOT = .275E-5
MEAN_MOTION_DDOT = 0

CCSDS_OMM_VERS = 2.0
CREATION_DATE  = 
ORIGINATOR     = 

OBJECT_NAME    = SL-14 R/B
OBJECT_ID      = 1979-011B
CENTER_NAME    = EARTH
REF_FRAME      = TEME
TIME_SYSTEM    = UTC
MEAN_ELEMENT_THEORY = SGP/SGP4

EPOCH          = 2026-03-05T13:21:02.920320
MEAN_MOTION    = 14.91902861
ECCENTRICITY   = .00175726
INCLINATION    = 82.5213
RA_OF_ASC_NODE = 100.4941
ARG_OF_PERICENTER = 73.2348
MEAN_ANOMALY   = 287.0798

EPHEMERIS_TYPE = 0
CLASSIFICATION_TYPE = U
NORAD_CAT_ID   = 11267
ELEMENT_SET_NO = 999
REV_AT_EPOCH   = 52816
BSTAR          = .75614734E-4
MEAN_MOTION_DOT = .792E-5
MEAN_MOTION_DDOT = 0

CCSDS_OMM_VERS = 2.0
CREATION_DATE  = 
ORIGINATOR     = 

OBJECT_NAME    = SL-8 R/B
OBJECT_ID      = 1979-089B
CENTER_NAME    = EARTH
REF_FRAME      = TEME
TIME_SYSTEM    = UTC
MEAN_ELEMENT_THEORY = SGP/SGP4

EPOCH          = 2026-03-05T12:20:59.730144
MEAN_MOTION    = 14.42347568
ECCENTRICITY   = .00171402
INCLINATION    = 74.0672
RA_OF_ASC_NODE = 98.7734
ARG_OF_PERICENTER = 271.8665
MEAN_ANOMALY   = 88.0529

EPHEMERIS_TYPE = 0
CLASSIFICATION_TYPE = U
NORAD_CAT_ID   = 11574
ELEMENT_SET_NO = 999
REV_AT_EPOCH   = 43550
BSTAR          = .12143396E-3
MEAN_MOTION_DOT = .375E-5
MEAN_MOTION_DDOT = 0

CCSDS_OMM_VERS = 2.0
CREATION_DATE  = 
ORIGINATOR     = 

OBJECT_NAME    = SL-14 R/B
OBJECT_ID      = 1980-005B
CENTER_NAME    = EARTH
REF_FRAME      = TEME
TIME_SYSTEM    = UTC
MEAN_ELEMENT_THEORY = SGP/SGP4

EPOCH          = 2026-03-05T15:12:31.797504
MEAN_MOTION    = 14.90925035
ECCENTRICITY   = .0015831
INCLINATION    = 82.5153
RA_OF_ASC_NODE = 311.0835
ARG_OF_PERICENTER = 171.4086
MEAN_ANOMALY   = 188.7408

EPHEMERIS_TYPE = 0
CLASSIFICATION_TYPE = U
NORAD_CAT_ID   = 11672
ELEMENT_SET_NO = 999
REV_AT_EPOCH   = 47588
BSTAR          = .77042608E-4
MEAN_MOTION_DOT = .787E-5
MEAN_MOTION_DDOT = 0

CCSDS_OMM_VERS = 2.0
CREATION_DATE  = 
ORIGINATOR     = 

OBJECT_NAME    = SL-8 R/B
OBJECT_ID      = 1981-003B
CENTER_NAME    = EARTH
REF_FRAME      = TEME
TIME_SYSTEM    = UTC
MEAN_ELEMENT_THEORY = SGP/SGP4

EPOCH          = 2026-03-05T15:06:29.681280
MEAN_MOTION    = 15.10782534
ECCENTRICITY   = .02626185
INCLINATION    = 82.9382
RA_OF_ASC_NODE = 293.7791
ARG_OF_PERICENTER = 192.7413
MEAN_ANOMALY   = 166.7102

EPHEMERIS_TYPE = 0
CLASSIFICATION_TYPE = U
NORAD_CAT_ID   = 12139
ELEMENT_SET_NO = 999
REV_AT_EPOCH   = 31406
BSTAR          = .53521873E-3
MEAN_MOTION_DOT = .20779E-3
MEAN_MOTION_DDOT = 0

CCSDS_OMM_VERS = 2.0
CREATION_DATE  = 
ORIGINATOR     = 

OBJECT_NAME    = SL-3 R/B
OBJECT_ID      = 1981-046B
CENTER_NAME    = EARTH
REF_FRAME      = TEME
TIME_SYSTEM    = UTC
MEAN_ELEMENT_THEORY = SGP/SGP4

EPOCH          = 2026-03-05T15:08:58.514784
MEAN_MOTION    = 15.41869480
ECCENTRICITY   = .00199128
INCLINATION    = 81.2302
RA_OF_ASC_NODE = 294.6181
ARG_OF_PERICENTER = 36.0727
MEAN_ANOMALY   = 324.1855

EPHEMERIS_TYPE = 0
CLASSIFICATION_TYPE = U
NORAD_CAT_ID   = 12465
ELEMENT_SET_NO = 999
REV_AT_EPOCH   = 43780
BSTAR          = .33663276E-3
MEAN_MOTION_DOT = .14424E-3
MEAN_MOTION_DDOT = 0

CCSDS_OMM_VERS = 2.0
CREATION_DATE  = 
ORIGINATOR     = 

OBJECT_NAME    = SL-3 R/B
OBJECT_ID      = 1981-103B
CENTER_NAME    = EARTH
REF_FRAME      = TEME
TIME_SYSTEM    = UTC
MEAN_ELEMENT_THEORY = SGP/SGP4

EPOCH          = 2026-03-05T13:30:35.478432
MEAN_MOTION    = 15.21316164
ECCENTRICITY   = .0012464
INCLINATION    = 81.1581
RA_OF_ASC_NODE = 218.2727
ARG_OF_PERICENTER = 301.4510
MEAN_ANOMALY   = 58.5502

EPHEMERIS_TYPE = 0
CLASSIFICATION_TYPE = U
NORAD_CAT_ID   = 12904
ELEMENT_SET_NO = 999
REV_AT_EPOCH   = 97260
BSTAR          = .35676028E-3
MEAN_MOTION_DOT = .8025E-4
MEAN_MOTION_DDOT = 0

CCSDS_OMM_VERS = 2.0
CREATION_DATE  = 
ORIGINATOR     = 

OBJECT_NAME    = SL-3 R/B
OBJECT_ID      = 1982-013B
CENTER_NAME    = EARTH
REF_FRAME      = TEME
TIME_SYSTEM    = UTC
MEAN_ELEMENT_THEORY = SGP/SGP4

EPOCH          = 2026-03-05T13:44:42.362592
MEAN_MOTION    = 15.21964869
ECCENTRICITY   = .00223995
INCLINATION    = 81.1766
RA_OF_ASC_NODE = 165.5946
ARG_OF_PERICENTER = 191.1280
MEAN_ANOMALY   = 168.9460

EPHEMERIS_TYPE = 0
CLASSIFICATION_TYPE = U
NORAD_CAT_ID   = 13068
ELEMENT_SET_NO = 999
REV_AT_EPOCH   = 40372
BSTAR          = .27201013E-3
MEAN_MOTION_DOT = .6271E-4
MEAN_MOTION_DDOT = 0

CCSDS_OMM_VERS = 2.0
CREATION_DATE  = 
ORIGINATOR     = 

OBJECT_NAME    = SL-3 R/B
OBJECT_ID      = 1982-039B
CENTER_NAME    = EARTH
REF_FRAME      = TEME
TIME_SYSTEM    = UTC
MEAN_ELEMENT_THEORY = SGP/SGP4

EPOCH          = 2026-03-05T14:45:19.377504
MEAN_MOTION    = 15.10052486
ECCENTRICITY   = .00298269
INCLINATION    = 81.1583
RA_OF_ASC_NODE = 220.6597
ARG_OF_PERICENTER = 337.7579
MEAN_ANOMALY   = 22.2350

EPHEMERIS_TYPE = 0
CLASSIFICATION_TYPE = U
NORAD_CAT_ID   = 13154
ELEMENT_SET_NO = 999
REV_AT_EPOCH   = 38102
BSTAR          = .23507566E-3
MEAN_MOTION_DOT = .3886E-4
MEAN_MOTION_DDOT = 0

